[
  {
    "OBJECT_NAME": "STARLINK-31229",
    "OBJECT_ID": "24031X",
    "EPOCH": "2025-11-11T04:17:33.434016",
    "MEAN_MOTION": 15.30209179,
    "ECCENTRICITY": 0.000125,
    "INCLINATION": 53.1594,
    "RA_OF_ASC_NODE": 127.5153,
    "ARG_OF_PERICENTER": 87.493,
    "MEAN_ANOMALY": 272.6214,
    "EPHEMERIS_TYPE": 0,
    "CLASSIFICATION_TYPE": "U",
    "NORAD_CAT_ID": 58986,
    "ELEMENT_SET_NO": 999,
    "REV_AT_EPOCH": 9836,
    "BSTAR": 0.0,
    "MEAN_MOTION_DOT": -2.878e-05,
    "MEAN_MOTION_DDOT": 0.0,
    "TLE_LINE1": "1 58986U 24031X   25315.17885919 -.00002878  00000+0 -85053-4 0  9991",
    "TLE_LINE2": "2 58986  53.1594 127.5153 0001250  87.4930 272.6214 15.30209179 98365",
    "COMMENT": "Grouped by shell and plane from TLE"
  },
  {
    "OBJECT_NAME": "STARLINK-31849",
    "OBJECT_ID": "24090E",
    "EPOCH": "2025-11-10T21:46:45.253344",
    "MEAN_MOTION": 15.27577132,
    "ECCENTRICITY": 0.0001414,
    "INCLINATION": 42.9976,
    "RA_OF_ASC_NODE": 127.4204,
    "ARG_OF_PERICENTER": 277.2296,
    "MEAN_ANOMALY": 82.8395,
    "EPHEMERIS_TYPE": 0,
    "CLASSIFICATION_TYPE": "U",
    "NORAD_CAT_ID": 59734,
    "ELEMENT_SET_NO": 999,
    "REV_AT_EPOCH": 8535,
    "BSTAR": 3.2031000000000003e-06,
    "MEAN_MOTION_DOT": -1.74e-06,
    "MEAN_MOTION_DDOT": 0.0,
    "TLE_LINE1": "1 59734U 24090E   25314.90746821 -.00000174  00000+0  32031-5 0  9991",
    "TLE_LINE2": "2 59734  42.9976 127.4204 0001414 277.2296  82.8395 15.27577132 85358",
    "COMMENT": "Grouped by shell and plane from TLE"
  },
  {
    "OBJECT_NAME": "STARLINK-31661",
    "OBJECT_ID": "24090F",
    "EPOCH": "2025-11-10T21:30:05.033376",
    "MEAN_MOTION": 15.27583678,
    "ECCENTRICITY": 5.83e-05,
    "INCLINATION": 42.9996,
    "RA_OF_ASC_NODE": 127.332,
    "ARG_OF_PERICENTER": 255.0844,
    "MEAN_ANOMALY": 104.9943,
    "EPHEMERIS_TYPE": 0,
    "CLASSIFICATION_TYPE": "U",
    "NORAD_CAT_ID": 59735,
    "ELEMENT_SET_NO": 999,
    "REV_AT_EPOCH": 8535,
    "BSTAR": 2.6436e-05,
    "MEAN_MOTION_DOT": 4.66e-06,
    "MEAN_MOTION_DDOT": 0.0,
    "TLE_LINE1": "1 59735U 24090F   25314.89589159  .00000466  00000+0  26436-4 0  9993",
    "TLE_LINE2": "2 59735  42.9996 127.3320 0000583 255.0844 104.9943 15.27583678 85355",
    "COMMENT": "Grouped by shell and plane from TLE"
  },
  {
    "OBJECT_NAME": "STARLINK-31809",
    "OBJECT_ID": "24090P",
    "EPOCH": "2025-11-10T21:35:38.480352",
    "MEAN_MOTION": 15.27591809,
    "ECCENTRICITY": 0.0001454,
    "INCLINATION": 43.0003,
    "RA_OF_ASC_NODE": 127.3582,
    "ARG_OF_PERICENTER": 272.0907,
    "MEAN_ANOMALY": 87.9778,
    "EPHEMERIS_TYPE": 0,
    "CLASSIFICATION_TYPE": "U",
    "NORAD_CAT_ID": 59743,
    "ELEMENT_SET_NO": 999,
    "REV_AT_EPOCH": 8535,
    "BSTAR": 9.695000000000001e-05,
    "MEAN_MOTION_DOT": 2.408e-05,
    "MEAN_MOTION_DDOT": 0.0,
    "TLE_LINE1": "1 59743U 24090P   25314.89975093  .00002408  00000+0  96950-4 0  9994",
    "TLE_LINE2": "2 59743  43.0003 127.3582 0001454 272.0907  87.9778 15.27591809 85353",
    "COMMENT": "Grouped by shell and plane from TLE"
  },
  {
    "OBJECT_NAME": "STARLINK-31681",
    "OBJECT_ID": "24090S",
    "EPOCH": "2025-11-11T03:57:48.686976",
    "MEAN_MOTION": 15.27605233,
    "ECCENTRICITY": 6.15e-05,
    "INCLINATION": 42.998,
    "RA_OF_ASC_NODE": 125.9092,
    "ARG_OF_PERICENTER": 3.4014,
    "MEAN_ANOMALY": 356.6841,
    "EPHEMERIS_TYPE": 0,
    "CLASSIFICATION_TYPE": "U",
    "NORAD_CAT_ID": 59746,
    "ELEMENT_SET_NO": 999,
    "REV_AT_EPOCH": 8539,
    "BSTAR": 0.0,
    "MEAN_MOTION_DOT": -4.176e-05,
    "MEAN_MOTION_DDOT": 0.0,
    "TLE_LINE1": "1 59746U 24090S   25315.16514684 -.00004176  00000+0 -14223-3 0  9991",
    "TLE_LINE2": "2 59746  42.9980 125.9092 0000615   3.4014 356.6841 15.27605233 85399",
    "COMMENT": "Grouped by shell and plane from TLE"
  },
  {
    "OBJECT_NAME": "STARLINK-32191",
    "OBJECT_ID": "24133P",
    "EPOCH": "2025-11-11T05:12:08.750880",
    "MEAN_MOTION": 15.30188304,
    "ECCENTRICITY": 0.0001303,
    "INCLINATION": 53.161,
    "RA_OF_ASC_NODE": 127.2073,
    "ARG_OF_PERICENTER": 83.4513,
    "MEAN_ANOMALY": 276.6636,
    "EPHEMERIS_TYPE": 0,
    "CLASSIFICATION_TYPE": "U",
    "NORAD_CAT_ID": 60314,
    "ELEMENT_SET_NO": 999,
    "REV_AT_EPOCH": 7350,
    "BSTAR": 2.2772e-05,
    "MEAN_MOTION_DOT": 3.15e-06,
    "MEAN_MOTION_DDOT": 0.0,
    "TLE_LINE1": "1 60314U 24133P   25315.21676795  .00000315  00000+0  22772-4 0  9998",
    "TLE_LINE2": "2 60314  53.1610 127.2073 0001303  83.4513 276.6636 15.30188304 73509",
    "COMMENT": "Grouped by shell and plane from TLE"
  },
  {
    "OBJECT_NAME": "STARLINK-32194",
    "OBJECT_ID": "24133Q",
    "EPOCH": "2025-11-10T18:35:02.510304",
    "MEAN_MOTION": 15.30205185,
    "ECCENTRICITY": 0.0001134,
    "INCLINATION": 53.1596,
    "RA_OF_ASC_NODE": 129.4274,
    "ARG_OF_PERICENTER": 83.2061,
    "MEAN_ANOMALY": 276.9069,
    "EPHEMERIS_TYPE": 0,
    "CLASSIFICATION_TYPE": "U",
    "NORAD_CAT_ID": 60315,
    "ELEMENT_SET_NO": 999,
    "REV_AT_EPOCH": 7343,
    "BSTAR": 1.7518e-05,
    "MEAN_MOTION_DOT": 1.6e-06,
    "MEAN_MOTION_DDOT": 0.0,
    "TLE_LINE1": "1 60315U 24133Q   25314.77433461  .00000160  00000+0  17518-4 0  9990",
    "TLE_LINE2": "2 60315  53.1596 129.4274 0001134  83.2061 276.9069 15.30205185 73430",
    "COMMENT": "Grouped by shell and plane from TLE"
  },
  {
    "OBJECT_NAME": "STARLINK-32192",
    "OBJECT_ID": "24133R",
    "EPOCH": "2025-11-11T04:40:13.879776",
    "MEAN_MOTION": 15.30189605,
    "ECCENTRICITY": 0.0001143,
    "INCLINATION": 53.1598,
    "RA_OF_ASC_NODE": 127.076,
    "ARG_OF_PERICENTER": 90.2516,
    "MEAN_ANOMALY": 269.8616,
    "EPHEMERIS_TYPE": 0,
    "CLASSIFICATION_TYPE": "U",
    "NORAD_CAT_ID": 60316,
    "ELEMENT_SET_NO": 999,
    "REV_AT_EPOCH": 7359,
    "BSTAR": 1.1368e-05,
    "MEAN_MOTION_DOT": -2.2e-07,
    "MEAN_MOTION_DDOT": 0.0,
    "TLE_LINE1": "1 60316U 24133R   25315.19460509 -.00000022  00000+0  11368-4 0  9996",
    "TLE_LINE2": "2 60316  53.1598 127.0760 0001143  90.2516 269.8616 15.30189605 73594",
    "COMMENT": "Grouped by shell and plane from TLE"
  },
  {
    "OBJECT_NAME": "STARLINK-32189",
    "OBJECT_ID": "24133S",
    "EPOCH": "2025-11-10T21:40:06.189888",
    "MEAN_MOTION": 15.30203027,
    "ECCENTRICITY": 0.0001064,
    "INCLINATION": 53.1606,
    "RA_OF_ASC_NODE": 128.8046,
    "ARG_OF_PERICENTER": 81.4027,
    "MEAN_ANOMALY": 278.7094,
    "EPHEMERIS_TYPE": 0,
    "CLASSIFICATION_TYPE": "U",
    "NORAD_CAT_ID": 60317,
    "ELEMENT_SET_NO": 999,
    "REV_AT_EPOCH": 7354,
    "BSTAR": 4.7993000000000006e-05,
    "MEAN_MOTION_DOT": 1.063e-05,
    "MEAN_MOTION_DDOT": 0.0,
    "TLE_LINE1": "1 60317U 24133S   25314.90284942  .00001063  00000+0  47993-4 0  9998",
    "TLE_LINE2": "2 60317  53.1606 128.8046 0001064  81.4027 278.7094 15.30203027 73541",
    "COMMENT": "Grouped by shell and plane from TLE"
  },
  {
    "OBJECT_NAME": "STARLINK-32190",
    "OBJECT_ID": "24133T",
    "EPOCH": "2025-11-11T05:16:41.957184",
    "MEAN_MOTION": 15.30192482,
    "ECCENTRICITY": 0.0001508,
    "INCLINATION": 53.1617,
    "RA_OF_ASC_NODE": 127.2262,
    "ARG_OF_PERICENTER": 81.3051,
    "MEAN_ANOMALY": 278.8121,
    "EPHEMERIS_TYPE": 0,
    "CLASSIFICATION_TYPE": "U",
    "NORAD_CAT_ID": 60318,
    "ELEMENT_SET_NO": 999,
    "REV_AT_EPOCH": 7350,
    "BSTAR": 2.0794e-05,
    "MEAN_MOTION_DOT": 2.56e-06,
    "MEAN_MOTION_DDOT": 0.0,
    "TLE_LINE1": "1 60318U 24133T   25315.21993006  .00000256  00000+0  20794-4 0  9995",
    "TLE_LINE2": "2 60318  53.1617 127.2262 0001508  81.3051 278.8121 15.30192482 73506",
    "COMMENT": "Grouped by shell and plane from TLE"
  },
  {
    "OBJECT_NAME": "STARLINK-32182",
    "OBJECT_ID": "24133U",
    "EPOCH": "2025-11-10T21:41:37.512960",
    "MEAN_MOTION": 15.30200636,
    "ECCENTRICITY": 0.0001192,
    "INCLINATION": 53.1591,
    "RA_OF_ASC_NODE": 128.8135,
    "ARG_OF_PERICENTER": 81.3433,
    "MEAN_ANOMALY": 278.7703,
    "EPHEMERIS_TYPE": 0,
    "CLASSIFICATION_TYPE": "U",
    "NORAD_CAT_ID": 60319,
    "ELEMENT_SET_NO": 999,
    "REV_AT_EPOCH": 7345,
    "BSTAR": 4.4295e-05,
    "MEAN_MOTION_DOT": 9.53e-06,
    "MEAN_MOTION_DDOT": 0.0,
    "TLE_LINE1": "1 60319U 24133U   25314.90390640  .00000953  00000+0  44295-4 0  9992",
    "TLE_LINE2": "2 60319  53.1591 128.8135 0001192  81.3433 278.7703 15.30200636 73457",
    "COMMENT": "Grouped by shell and plane from TLE"
  },
  {
    "OBJECT_NAME": "STARLINK-32199",
    "OBJECT_ID": "24133V",
    "EPOCH": "2025-11-10T18:22:53.170752",
    "MEAN_MOTION": 15.30199379,
    "ECCENTRICITY": 0.0001344,
    "INCLINATION": 53.1618,
    "RA_OF_ASC_NODE": 129.3711,
    "ARG_OF_PERICENTER": 80.9521,
    "MEAN_ANOMALY": 279.1632,
    "EPHEMERIS_TYPE": 0,
    "CLASSIFICATION_TYPE": "U",
    "NORAD_CAT_ID": 60320,
    "ELEMENT_SET_NO": 999,
    "REV_AT_EPOCH": 7343,
    "BSTAR": 4.554e-07,
    "MEAN_MOTION_DOT": -3.46e-06,
    "MEAN_MOTION_DDOT": 0.0,
    "TLE_LINE1": "1 60320U 24133V   25314.76589318 -.00000346  00000+0  45540-6 0  9993",
    "TLE_LINE2": "2 60320  53.1618 129.3711 0001344  80.9521 279.1632 15.30199379 73432",
    "COMMENT": "Grouped by shell and plane from TLE"
  },
  {
    "OBJECT_NAME": "STARLINK-32266",
    "OBJECT_ID": "24138Q",
    "EPOCH": "2025-11-10T21:12:03.135168",
    "MEAN_MOTION": 15.32854302,
    "ECCENTRICITY": 7.53e-05,
    "INCLINATION": 53.1526,
    "RA_OF_ASC_NODE": 128.7396,
    "ARG_OF_PERICENTER": 55.071,
    "MEAN_ANOMALY": 305.0363,
    "EPHEMERIS_TYPE": 0,
    "CLASSIFICATION_TYPE": "U",
    "NORAD_CAT_ID": 60369,
    "ELEMENT_SET_NO": 999,
    "REV_AT_EPOCH": 7261,
    "BSTAR": 0.0009481800000000001,
    "MEAN_MOTION_DOT": 0.00030261,
    "MEAN_MOTION_DDOT": 0.0,
    "TLE_LINE1": "1 60369U 24138Q   25314.88336962  .00030261  00000+0  94818-3 0  9996",
    "TLE_LINE2": "2 60369  53.1526 128.7396 0000753  55.0710 305.0363 15.32854302 72616",
    "COMMENT": "Grouped by shell and plane from TLE"
  }
]